[
  {
    "COMMENT": "GENERATED VIA SPACETRACK.ORG API",
    "ORIGINATOR": "18 SPCS",
    "NORAD_CAT_ID": "26997",
    "OBJECT_NAME": "JASON",
    "OBJECT_TYPE": "PAYLOAD",
    "CLASSIFICATION_TYPE": "U",
    "INTLDES": "01055A",
    "EPOCH": "2023-04-01 04:11:28",
    "EPOCH_MICROSECONDS": "921920",
    "MEAN_MOTION": "12.84019016",
    "ECCENTRICITY": "0.0007235",
    "INCLINATION": "66.0438",
    "RA_OF_ASC_NODE": "4.0709",
    "ARG_OF_PERICENTER": "264.0975",
    "MEAN_ANOMALY": "263.2182",
    "EPHEMERIS_TYPE": "0",
    "ELEMENT_SET_NO": "999",
    "REV_AT_EPOCH": "99802",
    "BSTAR": "0.000028748",
    "MEAN_MOTION_DOT": "-0.00000055",
    "MEAN_MOTION_DDOT": "0",
    "FILE": "3877270",
    "TLE_LINE0": "0 JASON",
    "TLE_LINE1": "1 26997U 01055A   23091.17464030 -.00000055  00000-0  28748-4 0  9998",
    "TLE_LINE2": "2 26997  66.0438   4.0709 0007235 264.0975 263.2182 12.84019016998026",
    "OBJECT_ID": "2001-055A",
    "OBJECT_NUMBER": "26997",
    "SEMIMAJOR_AXIS": "7703.490",
    "PERIOD": "112.148",
    "APOGEE": "1330.929",
    "PERIGEE": "1319.782",
    "DECAYED": "0"
  },
  {
    "COMMENT": "GENERATED VIA SPACETRACK.ORG API",
    "ORIGINATOR": "18 SPCS",
    "NORAD_CAT_ID": "26997",
    "OBJECT_NAME": "JASON",
    "OBJECT_TYPE": "PAYLOAD",
    "CLASSIFICATION_TYPE": "U",
    "INTLDES": "01055A",
    "EPOCH": "2023-04-01 20:27:50",
    "EPOCH_MICROSECONDS": "389056",
    "MEAN_MOTION": "12.84019015",
    "ECCENTRICITY": "0.0007211",
    "INCLINATION": "66.0438",
    "RA_OF_ASC_NODE": "2.6549",
    "ARG_OF_PERICENTER": "264.0916",
    "MEAN_ANOMALY": "157.0705",
    "EPHEMERIS_TYPE": "0",
    "ELEMENT_SET_NO": "999",
    "REV_AT_EPOCH": "99811",
    "BSTAR": "0.0000091278",
    "MEAN_MOTION_DOT": "-0.00000059",
    "MEAN_MOTION_DDOT": "0",
    "FILE": "3877516",
    "TLE_LINE0": "0 JASON",
    "TLE_LINE1": "1 26997U 01055A   23091.85266654 -.00000059  00000-0  91278-5 0  9998",
    "TLE_LINE2": "2 26997  66.0438   2.6549 0007211 264.0916 157.0705 12.84019015998111",
    "OBJECT_ID": "2001-055A",
    "OBJECT_NUMBER": "26997",
    "SEMIMAJOR_AXIS": "7703.490",
    "PERIOD": "112.148",
    "APOGEE": "1330.910",
    "PERIGEE": "1319.800",
    "DECAYED": "0"
  },
  {
    "COMMENT": "GENERATED VIA SPACETRACK.ORG API",
    "ORIGINATOR": "18 SPCS",
    "NORAD_CAT_ID": "26997",
    "OBJECT_NAME": "JASON",
    "OBJECT_TYPE": "PAYLOAD",
    "CLASSIFICATION_TYPE": "U",
    "INTLDES": "01055A",
    "EPOCH": "2023-04-02 04:11:30",
    "EPOCH_MICROSECONDS": "371712",
    "MEAN_MOTION": "12.84019053",
    "ECCENTRICITY": "0.0007205",
    "INCLINATION": "66.0438",
    "RA_OF_ASC_NODE": "1.9824",
    "ARG_OF_PERICENTER": "264.0935",
    "MEAN_ANOMALY": "205.3134",
    "EPHEMERIS_TYPE": "0",
    "ELEMENT_SET_NO": "999",
    "REV_AT_EPOCH": "99815",
    "BSTAR": "0.000037332",
    "MEAN_MOTION_DOT": "-0.00000053",
    "MEAN_MOTION_DDOT": "0",
    "FILE": "3878126",
    "TLE_LINE0": "0 JASON",
    "TLE_LINE1": "1 26997U 01055A   23092.17465708 -.00000053  00000-0  37332-4 0  9999",
    "TLE_LINE2": "2 26997  66.0438   1.9824 0007205 264.0935 205.3134 12.84019053998152",
    "OBJECT_ID": "2001-055A",
    "OBJECT_NUMBER": "26997",
    "SEMIMAJOR_AXIS": "7703.490",
    "PERIOD": "112.148",
    "APOGEE": "1330.905",
    "PERIGEE": "1319.805",
    "DECAYED": "0"
  },
  {
    "COMMENT": "GENERATED VIA SPACETRACK.ORG API",
    "ORIGINATOR": "18 SPCS",
    "NORAD_CAT_ID": "26997",
    "OBJECT_NAME": "JASON",
    "OBJECT_TYPE": "PAYLOAD",
    "CLASSIFICATION_TYPE": "U",
    "INTLDES": "01055A",
    "EPOCH": "2023-04-02 20:50:56",
    "EPOCH_MICROSECONDS": "683104",
    "MEAN_MOTION": "12.84019095",
    "ECCENTRICITY": "0.0007188",
    "INCLINATION": "66.0437",
    "RA_OF_ASC_NODE": "0.5328",
    "ARG_OF_PERICENTER": "264.0941",
    "MEAN_ANOMALY": "173.2423",
    "EPHEMERIS_TYPE": "0",
    "ELEMENT_SET_NO": "999",
    "REV_AT_EPOCH": "99848",
    "BSTAR": "0.000041197",
    "MEAN_MOTION_DOT": "-0.00000052",
    "MEAN_MOTION_DDOT": "0",
    "FILE": "3878216",
    "TLE_LINE0": "0 JASON",
    "TLE_LINE1": "1 26997U 01055A   23092.86871161 -.00000052  00000-0  41197-4 0  9992",
    "TLE_LINE2": "2 26997  66.0437   0.5328 0007188 264.0941 173.2423 12.84019095998488",
    "OBJECT_ID": "2001-055A",
    "OBJECT_NUMBER": "26997",
    "SEMIMAJOR_AXIS": "7703.490",
    "PERIOD": "112.148",
    "APOGEE": "1330.892",
    "PERIGEE": "1319.818",
    "DECAYED": "0"
  },
  {
    "COMMENT": "GENERATED VIA SPACETRACK.ORG API",
    "ORIGINATOR": "18 SPCS",
    "NORAD_CAT_ID": "26997",
    "OBJECT_NAME": "JASON",
    "OBJECT_TYPE": "PAYLOAD",
    "CLASSIFICATION_TYPE": "U",
    "INTLDES": "01055A",
    "EPOCH": "2023-04-02 22:42:34",
    "EPOCH_MICROSECONDS": "985664",
    "MEAN_MOTION": "12.84019093",
    "ECCENTRICITY": "0.0007188",
    "INCLINATION": "66.0437",
    "RA_OF_ASC_NODE": "0.3709",
    "ARG_OF_PERICENTER": "264.0937",
    "MEAN_ANOMALY": "171.5719",
    "EPHEMERIS_TYPE": "0",
    "ELEMENT_SET_NO": "999",
    "REV_AT_EPOCH": "99825",
    "BSTAR": "0.000045023",
    "MEAN_MOTION_DOT": "-0.00000051",
    "MEAN_MOTION_DDOT": "0",
    "FILE": "3878419",
    "TLE_LINE0": "0 JASON",
    "TLE_LINE1": "1 26997U 01055A   23092.94623826 -.00000051  00000-0  45023-4 0  9995",
    "TLE_LINE2": "2 26997  66.0437   0.3709 0007188 264.0937 171.5719 12.84019093998256",
    "OBJECT_ID": "2001-055A",
    "OBJECT_NUMBER": "26997",
    "SEMIMAJOR_AXIS": "7703.490",
    "PERIOD": "112.148",
    "APOGEE": "1330.892",
    "PERIGEE": "1319.818",
    "DECAYED": "0"
  },
  {
    "COMMENT": "GENERATED VIA SPACETRACK.ORG API",
    "ORIGINATOR": "18 SPCS",
    "NORAD_CAT_ID": "26997",
    "OBJECT_NAME": "JASON",
    "OBJECT_TYPE": "PAYLOAD",
    "CLASSIFICATION_TYPE": "U",
    "INTLDES": "01055A",
    "EPOCH": "2023-04-03 02:34:15",
    "EPOCH_MICROSECONDS": "625920",
    "MEAN_MOTION": "12.84019114",
    "ECCENTRICITY": "0.0007186",
    "INCLINATION": "66.0437",
    "RA_OF_ASC_NODE": "0.0348",
    "ARG_OF_PERICENTER": "264.1005",
    "MEAN_ANOMALY": "195.1871",
    "EPHEMERIS_TYPE": "0",
    "ELEMENT_SET_NO": "999",
    "REV_AT_EPOCH": "99827",
    "BSTAR": "0.000063353",
    "MEAN_MOTION_DOT": "-0.00000046",
    "MEAN_MOTION_DDOT": "0",
    "FILE": "3879059",
    "TLE_LINE0": "0 JASON",
    "TLE_LINE1": "1 26997U 01055A   23093.10712530 -.00000046  00000-0  63353-4 0  9995",
    "TLE_LINE2": "2 26997  66.0437   0.0348 0007186 264.1005 195.1871 12.84019114998274",
    "OBJECT_ID": "2001-055A",
    "OBJECT_NUMBER": "26997",
    "SEMIMAJOR_AXIS": "7703.490",
    "PERIOD": "112.148",
    "APOGEE": "1330.891",
    "PERIGEE": "1319.819",
    "DECAYED": "0"
  },
  {
    "COMMENT": "GENERATED VIA SPACETRACK.ORG API",
    "ORIGINATOR": "18 SPCS",
    "NORAD_CAT_ID": "26997",
    "OBJECT_NAME": "JASON",
    "OBJECT_TYPE": "PAYLOAD",
    "CLASSIFICATION_TYPE": "U",
    "INTLDES": "01055A",
    "EPOCH": "2023-04-03 17:05:51",
    "EPOCH_MICROSECONDS": "552672",
    "MEAN_MOTION": "12.8401912",
    "ECCENTRICITY": "0.0007172",
    "INCLINATION": "66.0436",
    "RA_OF_ASC_NODE": "358.7706",
    "ARG_OF_PERICENTER": "264.0909",
    "MEAN_ANOMALY": "112.7948",
    "EPHEMERIS_TYPE": "0",
    "ELEMENT_SET_NO": "999",
    "REV_AT_EPOCH": "99835",
    "BSTAR": "0.000061198",
    "MEAN_MOTION_DOT": "-0.00000047",
    "MEAN_MOTION_DDOT": "0",
    "FILE": "3879321",
    "TLE_LINE0": "0 JASON",
    "TLE_LINE1": "1 26997U 01055A   23093.71240223 -.00000047  00000-0  61198-4 0  9993",
    "TLE_LINE2": "2 26997  66.0436 358.7706 0007172 264.0909 112.7948 12.84019120998357",
    "OBJECT_ID": "2001-055A",
    "OBJECT_NUMBER": "26997",
    "SEMIMAJOR_AXIS": "7703.490",
    "PERIOD": "112.148",
    "APOGEE": "1330.880",
    "PERIGEE": "1319.830",
    "DECAYED": "0"
  },
  {
    "COMMENT": "GENERATED VIA SPACETRACK.ORG API",
    "ORIGINATOR": "18 SPCS",
    "NORAD_CAT_ID": "26997",
    "OBJECT_NAME": "JASON",
    "OBJECT_TYPE": "PAYLOAD",
    "CLASSIFICATION_TYPE": "U",
    "INTLDES": "01055A",
    "EPOCH": "2023-04-04 02:52:40",
    "EPOCH_MICROSECONDS": "650816",
    "MEAN_MOTION": "12.84019121",
    "ECCENTRICITY": "0.0007163",
    "INCLINATION": "66.0435",
    "RA_OF_ASC_NODE": "357.9195",
    "ARG_OF_PERICENTER": "264.0643",
    "MEAN_ANOMALY": "196.3508",
    "EPHEMERIS_TYPE": "0",
    "ELEMENT_SET_NO": "999",
    "REV_AT_EPOCH": "99840",
    "BSTAR": "0.000074097",
    "MEAN_MOTION_DOT": "-0.00000044",
    "MEAN_MOTION_DDOT": "0",
    "FILE": "3879974",
    "TLE_LINE0": "0 JASON",
    "TLE_LINE1": "1 26997U 01055A   23094.11991494 -.00000044  00000-0  74097-4 0  9990",
    "TLE_LINE2": "2 26997  66.0435 357.9195 0007163 264.0643 196.3508 12.84019121998401",
    "OBJECT_ID": "2001-055A",
    "OBJECT_NUMBER": "26997",
    "SEMIMAJOR_AXIS": "7703.490",
    "PERIOD": "112.148",
    "APOGEE": "1330.873",
    "PERIGEE": "1319.837",
    "DECAYED": "0"
  },
  {
    "COMMENT": "GENERATED VIA SPACETRACK.ORG API",
    "ORIGINATOR": "18 SPCS",
    "NORAD_CAT_ID": "26997",
    "OBJECT_NAME": "JASON",
    "OBJECT_TYPE": "PAYLOAD",
    "CLASSIFICATION_TYPE": "U",
    "INTLDES": "01055A",
    "EPOCH": "2023-04-04 21:24:50",
    "EPOCH_MICROSECONDS": "767200",
    "MEAN_MOTION": "12.84019136",
    "ECCENTRICITY": "0.0007151",
    "INCLINATION": "66.0434",
    "RA_OF_ASC_NODE": "356.3063",
    "ARG_OF_PERICENTER": "264.0477",
    "MEAN_ANOMALY": "166.1303",
    "EPHEMERIS_TYPE": "0",
    "ELEMENT_SET_NO": "999",
    "REV_AT_EPOCH": "99850",
    "BSTAR": "0.000080038",
    "MEAN_MOTION_DOT": "-0.00000042",
    "MEAN_MOTION_DDOT": "0",
    "FILE": "3880211",
    "TLE_LINE0": "0 JASON",
    "TLE_LINE1": "1 26997U 01055A   23094.89225425 -.00000042  00000-0  80038-4 0  9999",
    "TLE_LINE2": "2 26997  66.0434 356.3063 0007151 264.0477 166.1303 12.84019136998504",
    "OBJECT_ID": "2001-055A",
    "OBJECT_NUMBER": "26997",
    "SEMIMAJOR_AXIS": "7703.490",
    "PERIOD": "112.148",
    "APOGEE": "1330.864",
    "PERIGEE": "1319.846",
    "DECAYED": "0"
  }
]